{"fetched_at":"2026-07-13T18:16:58.106Z","source":"https://celestrak.org/NORAD/elements/gp.php?NAME=HULIANWANG&FORMAT=JSON","constellation":"guowang","records":[{"OBJECT_NAME":"HULIANWANG DIGUI-28","OBJECT_ID":"2025-086J","EPOCH":"2026-07-13T07:23:28.071456","CLASSIFICATION_TYPE":"U","MEAN_MOTION":13.244109,"ECCENTRICITY":0.00020404,"INCLINATION":86.502,"RA_OF_ASC_NODE":304.1344,"ARG_OF_PERICENTER":112.5944,"MEAN_ANOMALY":247.5406,"EPHEMERIS_TYPE":0,"NORAD_CAT_ID":63695,"ELEMENT_SET_NO":999,"REV_AT_EPOCH":5831,"BSTAR":0.000015799882,"MEAN_MOTION_DOT":2.1e-7,"MEAN_MOTION_DDOT":0},{"OBJECT_NAME":"HULIANWANG DIGUI-29","OBJECT_ID":"2025-086K","EPOCH":"2026-07-13T07:12:38.295072","CLASSIFICATION_TYPE":"U","MEAN_MOTION":13.2441129,"ECCENTRICITY":0.00018899,"INCLINATION":86.5048,"RA_OF_ASC_NODE":304.2521,"ARG_OF_PERICENTER":114.1027,"MEAN_ANOMALY":246.0305,"EPHEMERIS_TYPE":0,"NORAD_CAT_ID":63696,"ELEMENT_SET_NO":999,"REV_AT_EPOCH":5831,"BSTAR":-0.000004563955,"MEAN_MOTION_DOT":1.3e-7,"MEAN_MOTION_DDOT":0},{"OBJECT_NAME":"HULIANWANG DIGUI-30","OBJECT_ID":"2025-121A","EPOCH":"2026-07-13T05:34:33.461472","CLASSIFICATION_TYPE":"U","MEAN_MOTION":13.24409435,"ECCENTRICITY":0.00019929,"INCLINATION":86.4992,"RA_OF_ASC_NODE":4.7683,"ARG_OF_PERICENTER":89.0527,"MEAN_ANOMALY":271.0836,"EPHEMERIS_TYPE":0,"NORAD_CAT_ID":64283,"ELEMENT_SET_NO":999,"REV_AT_EPOCH":5360,"BSTAR":-0.000029587007,"MEAN_MOTION_DOT":2e-8,"MEAN_MOTION_DDOT":0},{"OBJECT_NAME":"HULIANWANG DIGUI-31","OBJECT_ID":"2025-121B","EPOCH":"2026-07-13T05:23:45.864096","CLASSIFICATION_TYPE":"U","MEAN_MOTION":13.24414438,"ECCENTRICITY":0.00019793,"INCLINATION":86.5013,"RA_OF_ASC_NODE":4.8471,"ARG_OF_PERICENTER":89.3601,"MEAN_ANOMALY":270.776,"EPHEMERIS_TYPE":0,"NORAD_CAT_ID":64284,"ELEMENT_SET_NO":999,"REV_AT_EPOCH":5360,"BSTAR":-0.000024727538,"MEAN_MOTION_DOT":4e-8,"MEAN_MOTION_DDOT":0},{"OBJECT_NAME":"HULIANWANG DIGUI-32","OBJECT_ID":"2025-121C","EPOCH":"2026-07-13T05:12:40.178880","CLASSIFICATION_TYPE":"U","MEAN_MOTION":13.24410299,"ECCENTRICITY":0.00019254,"INCLINATION":86.4954,"RA_OF_ASC_NODE":4.6056,"ARG_OF_PERICENTER":93.1983,"MEAN_ANOMALY":266.9371,"EPHEMERIS_TYPE":0,"NORAD_CAT_ID":64285,"ELEMENT_SET_NO":999,"REV_AT_EPOCH":5360,"BSTAR":-0.000005340126,"MEAN_MOTION_DOT":1.2e-7,"MEAN_MOTION_DDOT":0},{"OBJECT_NAME":"HULIANWANG DIGUI-33","OBJECT_ID":"2025-121D","EPOCH":"2026-07-13T06:50:35.255328","CLASSIFICATION_TYPE":"U","MEAN_MOTION":13.24409937,"ECCENTRICITY":0.00019965,"INCLINATION":86.5012,"RA_OF_ASC_NODE":4.8102,"ARG_OF_PERICENTER":89.58,"MEAN_ANOMALY":270.5563,"EPHEMERIS_TYPE":0,"NORAD_CAT_ID":64286,"ELEMENT_SET_NO":999,"REV_AT_EPOCH":5361,"BSTAR":0.000044159491,"MEAN_MOTION_DOT":3.4e-7,"MEAN_MOTION_DDOT":0},{"OBJECT_NAME":"HULIANWANG DIGUI-34","OBJECT_ID":"2025-121E","EPOCH":"2026-07-13T06:39:45.873792","CLASSIFICATION_TYPE":"U","MEAN_MOTION":13.24410608,"ECCENTRICITY":0.00022181,"INCLINATION":86.499,"RA_OF_ASC_NODE":4.7166,"ARG_OF_PERICENTER":83.1318,"MEAN_ANOMALY":277.0068,"EPHEMERIS_TYPE":0,"NORAD_CAT_ID":64287,"ELEMENT_SET_NO":999,"REV_AT_EPOCH":5361,"BSTAR":0.000064791547,"MEAN_MOTION_DOT":4.2e-7,"MEAN_MOTION_DDOT":0},{"OBJECT_NAME":"HULIANWANG DIGUI-35","OBJECT_ID":"2025-159A","EPOCH":"2026-07-13T05:45:37.453248","CLASSIFICATION_TYPE":"U","MEAN_MOTION":13.24413034,"ECCENTRICITY":0.00046122,"INCLINATION":86.4941,"RA_OF_ASC_NODE":273.6289,"ARG_OF_PERICENTER":68.7579,"MEAN_ANOMALY":291.4047,"EPHEMERIS_TYPE":0,"NORAD_CAT_ID":64956,"ELEMENT_SET_NO":999,"REV_AT_EPOCH":4657,"BSTAR":0.000091067847,"MEAN_MOTION_DOT":5.4e-7,"MEAN_MOTION_DDOT":0},{"OBJECT_NAME":"HULIANWANG DIGUI-36","OBJECT_ID":"2025-159B","EPOCH":"2026-07-13T05:39:58.677984","CLASSIFICATION_TYPE":"U","MEAN_MOTION":13.24408438,"ECCENTRICITY":0.00016332,"INCLINATION":86.4961,"RA_OF_ASC_NODE":273.6956,"ARG_OF_PERICENTER":101.2008,"MEAN_ANOMALY":258.931,"EPHEMERIS_TYPE":0,"NORAD_CAT_ID":64957,"ELEMENT_SET_NO":999,"REV_AT_EPOCH":4657,"BSTAR":0.000072464723,"MEAN_MOTION_DOT":4.6e-7,"MEAN_MOTION_DDOT":0},{"OBJECT_NAME":"HULIANWANG DIGUI-37","OBJECT_ID":"2025-159C","EPOCH":"2026-07-13T07:17:52.080000","CLASSIFICATION_TYPE":"U","MEAN_MOTION":13.24409191,"ECCENTRICITY":0.00017897,"INCLINATION":86.4902,"RA_OF_ASC_NODE":273.4611,"ARG_OF_PERICENTER":97.8348,"MEAN_ANOMALY":262.2989,"EPHEMERIS_TYPE":0,"NORAD_CAT_ID":64958,"ELEMENT_SET_NO":999,"REV_AT_EPOCH":4658,"BSTAR":0.000064269618,"MEAN_MOTION_DOT":4.2e-7,"MEAN_MOTION_DDOT":0},{"OBJECT_NAME":"HULIANWANG DIGUI-38","OBJECT_ID":"2025-159D","EPOCH":"2026-07-13T07:07:02.352864","CLASSIFICATION_TYPE":"U","MEAN_MOTION":13.24408858,"ECCENTRICITY":0.00018418,"INCLINATION":86.4961,"RA_OF_ASC_NODE":273.663,"ARG_OF_PERICENTER":98.8188,"MEAN_ANOMALY":261.3154,"EPHEMERIS_TYPE":0,"NORAD_CAT_ID":64959,"ELEMENT_SET_NO":999,"REV_AT_EPOCH":4658,"BSTAR":0.000024648835,"MEAN_MOTION_DOT":2.5e-7,"MEAN_MOTION_DDOT":0},{"OBJECT_NAME":"HULIANWANG DIGUI-39","OBJECT_ID":"2025-159E","EPOCH":"2026-07-13T06:56:08.495808","CLASSIFICATION_TYPE":"U","MEAN_MOTION":13.24408757,"ECCENTRICITY":0.00017952,"INCLINATION":86.4937,"RA_OF_ASC_NODE":273.575,"ARG_OF_PERICENTER":101.6647,"MEAN_ANOMALY":258.4689,"EPHEMERIS_TYPE":0,"NORAD_CAT_ID":64960,"ELEMENT_SET_NO":999,"REV_AT_EPOCH":4658,"BSTAR":0.00002095157,"MEAN_MOTION_DOT":2.4e-7,"MEAN_MOTION_DDOT":0},{"OBJECT_NAME":"HULIANWANG DIGUI-40","OBJECT_ID":"2025-162A","EPOCH":"2026-07-13T06:04:53.302080","CLASSIFICATION_TYPE":"U","MEAN_MOTION":13.29327275,"ECCENTRICITY":0.00002975,"INCLINATION":49.9977,"RA_OF_ASC_NODE":172.4443,"ARG_OF_PERICENTER":303.4607,"MEAN_ANOMALY":56.6237,"EPHEMERIS_TYPE":0,"NORAD_CAT_ID":65043,"ELEMENT_SET_NO":999,"REV_AT_EPOCH":4681,"BSTAR":0.000042718878,"MEAN_MOTION_DOT":-0.00000104,"MEAN_MOTION_DDOT":0},{"OBJECT_NAME":"HULIANWANG DIGUI-41","OBJECT_ID":"2025-162B","EPOCH":"2026-07-13T05:52:52.931712","CLASSIFICATION_TYPE":"U","MEAN_MOTION":13.2932684,"ECCENTRICITY":0.00002684,"INCLINATION":49.9987,"RA_OF_ASC_NODE":172.428,"ARG_OF_PERICENTER":310.6319,"MEAN_ANOMALY":49.453,"EPHEMERIS_TYPE":0,"NORAD_CAT_ID":65044,"ELEMENT_SET_NO":999,"REV_AT_EPOCH":4682,"BSTAR":0.000038686961,"MEAN_MOTION_DOT":-0.00000106,"MEAN_MOTION_DDOT":0},{"OBJECT_NAME":"HULIANWANG DIGUI-42","OBJECT_ID":"2025-162C","EPOCH":"2026-07-13T05:40:45.660576","CLASSIFICATION_TYPE":"U","MEAN_MOTION":13.29327444,"ECCENTRICITY":0.00002891,"INCLINATION":49.9953,"RA_OF_ASC_NODE":172.2885,"ARG_OF_PERICENTER":301.2867,"MEAN_ANOMALY":58.7976,"EPHEMERIS_TYPE":0,"NORAD_CAT_ID":65045,"ELEMENT_SET_NO":999,"REV_AT_EPOCH":4682,"BSTAR":0.000028583082,"MEAN_MOTION_DOT":-0.00000111,"MEAN_MOTION_DDOT":0},{"OBJECT_NAME":"HULIANWANG DIGUI-43","OBJECT_ID":"2025-162D","EPOCH":"2026-07-13T07:17:02.421600","CLASSIFICATION_TYPE":"U","MEAN_MOTION":13.29326044,"ECCENTRICITY":0.00003382,"INCLINATION":49.9969,"RA_OF_ASC_NODE":172.0242,"ARG_OF_PERICENTER":301.2676,"MEAN_ANOMALY":58.8163,"EPHEMERIS_TYPE":0,"NORAD_CAT_ID":65046,"ELEMENT_SET_NO":999,"REV_AT_EPOCH":4683,"BSTAR":0.000038145848,"MEAN_MOTION_DOT":-0.00000106,"MEAN_MOTION_DDOT":0}]}
