HULIANWANG DIGUI-28     
1 63695U 25086J   26194.30796379  .00000021  00000+0  15800-4 0  9996
2 63695  86.5020 304.1344 0002040 112.5944 247.5406 13.24410900 58312
HULIANWANG DIGUI-29     
1 63696U 25086K   26194.30044323  .00000013  00000+0 -45640-5 0  9990
2 63696  86.5048 304.2521 0001889 114.1027 246.0305 13.24411290 58316
HULIANWANG DIGUI-30     
1 64283U 25121A   26194.23233173  .00000002  00000+0 -29587-4 0  9997
2 64283  86.4992   4.7683 0001992  89.0527 271.0836 13.24409435 53609
HULIANWANG DIGUI-31     
1 64284U 25121B   26194.22483639  .00000004  00000+0 -24728-4 0  9995
2 64284  86.5013   4.8471 0001979  89.3601 270.7760 13.24414438 53603
HULIANWANG DIGUI-32     
1 64285U 25121C   26194.21713170  .00000012  00000+0 -53401-5 0  9991
2 64285  86.4954   4.6056 0001925  93.1983 266.9371 13.24410299 53607
HULIANWANG DIGUI-33     
1 64286U 25121D   26194.28513027  .00000034  00000+0  44159-4 0  9990
2 64286  86.5012   4.8102 0001996  89.5800 270.5563 13.24409937 53615
HULIANWANG DIGUI-34     
1 64287U 25121E   26194.27761428  .00000042  00000+0  64792-4 0  9994
2 64287  86.4990   4.7166 0002218  83.1318 277.0068 13.24410608 53610
HULIANWANG DIGUI-35     
1 64956U 25159A   26194.24001682  .00000054  00000+0  91068-4 0  9993
2 64956  86.4941 273.6289 0004612  68.7579 291.4047 13.24413034 46570
HULIANWANG DIGUI-36     
1 64957U 25159B   26194.23609581  .00000046  00000+0  72465-4 0  9996
2 64957  86.4961 273.6956 0001633 101.2008 258.9310 13.24408438 46577
HULIANWANG DIGUI-37     
1 64958U 25159C   26194.30407500  .00000042  00000+0  64270-4 0  9993
2 64958  86.4902 273.4611 0001789  97.8348 262.2989 13.24409191 46586
HULIANWANG DIGUI-38     
1 64959U 25159D   26194.29655501  .00000025  00000+0  24649-4 0  9995
2 64959  86.4961 273.6630 0001841  98.8188 261.3154 13.24408858 46580
HULIANWANG DIGUI-39     
1 64960U 25159E   26194.28898722  .00000024  00000+0  20952-4 0  9992
2 64960  86.4937 273.5750 0001795 101.6647 258.4689 13.24408757 46586
HULIANWANG DIGUI-40     
1 65043U 25162A   26194.25339470 -.00000104  00000+0  42719-4 0  9991
2 65043  49.9977 172.4443 0000297 303.4607  56.6237 13.29327275 46810
HULIANWANG DIGUI-41     
1 65044U 25162B   26194.24505708 -.00000106  00000+0  38687-4 0  9991
2 65044  49.9987 172.4280 0000268 310.6319  49.4530 13.29326840 46823
HULIANWANG DIGUI-42     
1 65045U 25162C   26194.23663959 -.00000111  00000+0  28583-4 0  9994
2 65045  49.9953 172.2885 0000289 301.2867  58.7976 13.29327444 46821
HULIANWANG DIGUI-43     
1 65046U 25162D   26194.30350025 -.00000106  00000+0  38146-4 0  9990
2 65046  49.9969 172.0242 0000338 301.2676  58.8163 13.29326044 46832
